{
    "links": {
        "self": "http://www.neowsapp.com/rest/v1/neo/3313559?api_key=iIulBulltgU6a56xZRHN4H3l9WmuAYTsLGpBGhQ2"
    },
    "id": "3313559",
    "neo_reference_id": "3313559",
    "name": "(2006 BP7)",
    "designation": "2006 BP7",
    "nasa_jpl_url": "http://ssd.jpl.nasa.gov/sbdb.cgi?sstr=3313559",
    "absolute_magnitude_h": 23.3,
    "estimated_diameter": {
        "kilometers": {
            "estimated_diameter_min": 0.058150704,
            "estimated_diameter_max": 0.130028927
        },
        "meters": {
            "estimated_diameter_min": 58.1507039646,
            "estimated_diameter_max": 130.0289270043
        },
        "miles": {
            "estimated_diameter_min": 0.0361331611,
            "estimated_diameter_max": 0.0807962044
        },
        "feet": {
            "estimated_diameter_min": 190.7831555951,
            "estimated_diameter_max": 426.6041048727
        }
    },
    "is_potentially_hazardous_asteroid": false,
    "close_approach_data": [
        {
            "close_approach_date": "2006-01-08",
            "close_approach_date_full": "2006-Jan-08 19:57",
            "epoch_date_close_approach": 1136750220000,
            "relative_velocity": {
                "kilometers_per_second": "9.9969749045",
                "kilometers_per_hour": "35989.1096563533",
                "miles_per_hour": "22362.2331639713"
            },
            "miss_distance": {
                "astronomical": "0.0693767277",
                "lunar": "26.9875470753",
                "kilometers": "10378610.691489999",
                "miles": "6448969.6409960262"
            },
            "orbiting_body": "Earth"
        }
    ],
    "orbital_data": {
        "orbit_id": "10",
        "orbit_determination_date": "2017-04-06 09:09:22",
        "first_observation_date": "2006-01-22",
        "last_observation_date": "2006-02-24",
        "data_arc_in_days": 33,
        "observations_used": 41,
        "orbit_uncertainty": "8",
        "minimum_orbit_intersection": ".0623768",
        "jupiter_tisserand_invariant": "3.315",
        "epoch_osculation": "2453762.5",
        "eccentricity": ".5845683081650253",
        "semi_major_axis": "2.330525890107438",
        "inclination": "4.808275955209202",
        "ascending_node_longitude": "327.402288143145",
        "orbital_period": "1299.509099114885",
        "perihelion_distance": ".9681743133925436",
        "perihelion_argument": "109.6592578206216",
        "aphelion_distance": "3.692877466822333",
        "perihelion_time": "2453720.762421688026",
        "mean_anomaly": "11.56246478192784",
        "mean_motion": ".2770276870282796",
        "equinox": "J2000",
        "orbit_class": {
            "orbit_class_type": "APO",
            "orbit_class_description": "Near-Earth asteroid orbits which cross the Earth’s orbit similar to that of 1862 Apollo",
            "orbit_class_range": "a (semi-major axis) > 1.0 AU; q (perihelion) < 1.017 AU"
        }
    },
    "is_sentry_object": false
}